NORAD_CAT_ID,OBJECT_NAME,OBJECT_TYPE,EPOCH,MEAN_MOTION,ECCENTRICITY,INCLINATION,RA_OF_ASC_NODE,ARG_OF_PERICENTER,MEAN_ANOMALY,BSTAR,MEAN_MOTION_DOT,MEAN_MOTION_DDOT,TLE_LINE0,TLE_LINE1,TLE_LINE2,SEMIMAJOR_AXIS,PERIOD,APOGEE,PERIGEE,DECAYED
54102.0,STARLINK-5179,PAYLOAD,2023-03-05 17:34:45,15.08843911,0.0001392,53.2162,231.606,85.7897,274.3255,0.00051025,7.843e-05,0.0,0 STARLINK-5179,1 54102U 22136BD  23064.73246893  .00007843  00000-0  51025-3 0  9991,2 54102  53.2162 231.6060 0001392  85.7897 274.3255 15.08843911 20932,6917.868,95.437,540.696,538.77,0.0
54102.0,STARLINK-5179,PAYLOAD,2023-03-06 11:03:59,15.08844839,0.0001513,53.2143,228.3354,79.7446,280.3717,0.0003612,5.466e-05,0.0,0 STARLINK-5179,1 54102U 22136BD  23065.46111020  .00005466  00000-0  36120-3 0  9993,2 54102  53.2143 228.3354 0001513  79.7446 280.3717 15.08844839 21513,6917.866,95.437,540.777,538.684,0.0
54102.0,STARLINK-5179,PAYLOAD,2023-03-06 17:25:32,15.08848842,0.0001585,53.2147,227.1448,87.0139,273.1034,0.00034905,5.273e-05,0.0,0 STARLINK-5179,1 54102U 22136BD  23065.72606815  .00005273  00000-0  34905-3 0  9998,2 54102  53.2147 227.1448 0001585  87.0139 273.1034 15.08848842 21080,6917.853,95.437,540.815,538.622,0.0
54102.0,STARLINK-5179,PAYLOAD,2023-03-07 10:54:46,15.08845172,8.58e-05,53.2155,223.8742,65.8055,294.3027,0.00026018,3.856e-05,0.0,0 STARLINK-5179,1 54102U 22136BD  23066.45470923  .00003856  00000-0  26018-3 0  9999,2 54102  53.2155 223.8742 0000858  65.8055 294.3027 15.08845172 21666,6917.865,95.437,540.323,539.136,0.0
54102.0,STARLINK-5179,PAYLOAD,2023-03-07 17:16:19,15.0885511,5.77e-05,53.2146,222.683,24.9864,335.1156,0.00042441,6.476e-05,0.0,0 STARLINK-5179,1 54102U 22136BD  23066.71966659  .00006476  00000-0  42441-3 0  9993,2 54102  53.2146 222.6830 0000577  24.9864 335.1156 15.08855110 21236,6917.834,95.437,540.098,539.3,0.0
54102.0,STARLINK-5179,PAYLOAD,2023-03-08 10:45:34,15.08837107,0.00018,53.2241,219.4194,95.9112,264.2085,1.7981e-05,-2e-08,0.0,0 STARLINK-5179,1 54102U 22136BD  23067.44831200 -.00000002  00000-0  17981-4 0  9999,2 54102  53.2241 219.4194 0001800  95.9112 264.2085 15.08837107 21816,6917.889,95.438,540.999,538.509,0.0
54102.0,STARLINK-5179,PAYLOAD,2023-03-08 20:17:53,15.08837754,0.0001224,53.2172,217.6301,69.3484,290.7639,0.00034878,5.267e-05,0.0,0 STARLINK-5179,1 54102U 22136BD  23067.84575534  .00005267  00000-0  34878-3 0  9998,2 54102  53.2172 217.6301 0001224  69.3484 290.7639 15.08837754 21408,6917.887,95.438,540.599,538.906,0.0
54102.0,STARLINK-5179,PAYLOAD,2023-03-09 18:33:19,15.08855554,0.0001277,53.2189,213.4669,110.1518,249.9611,0.001677,0.00026514,0.0,0 STARLINK-5179,1 54102U 22136BD  23068.77313782  .00026514  00000-0  16770-2 0  9994,2 54102  53.2189 213.4669 0001277 110.1518 249.9611 15.08855554 22010,6917.833,95.437,540.581,538.814,0.0
54102.0,STARLINK-5179,PAYLOAD,2023-03-10 07:16:23,15.08868399,0.0001956,53.2172,211.0889,97.3324,262.7891,0.0012077,0.00019,0.0,0 STARLINK-5179,1 54102U 22136BD  23069.30305233  .00019000  00000-0  12077-2 0  9994,2 54102  53.2172 211.0889 0001956  97.3324 262.7891 15.08868399 22097,6917.794,95.436,541.012,538.305,0.0
54102.0,STARLINK-5179,PAYLOAD,2023-03-11 02:20:59,15.088838,7.11e-05,53.2171,207.5198,45.0152,315.0898,0.00058199,8.998e-05,0.0,0 STARLINK-5179,1 54102U 22136BD  23070.09790543  .00008998  00000-0  58199-3 0  9994,2 54102  53.2171 207.5198 0000711  45.0152 315.0898 15.08883800 22213,6917.747,95.435,540.103,539.12,0.0
54102.0,STARLINK-5179,PAYLOAD,2023-03-11 10:17:55,15.08844385,0.0002056,53.2155,206.0338,71.3138,288.8077,-0.00060311,-9.875e-05,0.0,0 STARLINK-5179,1 54102U 22136BD  23070.42911103 -.00009875  00000-0 -60311-3 0  9994,2 54102  53.2155 206.0338 0002056  71.3138 288.8077 15.08844385 22261,6917.867,95.437,541.154,538.31,0.0
54102.0,STARLINK-5179,PAYLOAD,2023-03-11 16:39:27,15.08852657,0.0001363,53.2185,204.8422,87.9131,272.2018,-0.00021603,-3.726e-05,0.0,0 STARLINK-5179,1 54102U 22136BD  23070.69407212 -.00003726  00000-0 -21603-3 0  9994,2 54102  53.2185 204.8422 0001363  87.9131 272.2018 15.08852657 21835,6917.842,95.437,540.65,538.764,0.0
54102.0,STARLINK-5179,PAYLOAD,2023-03-12 08:33:20,15.08832632,0.000164,53.2183,201.8725,71.9678,288.1493,-0.00014564,-2.605e-05,0.0,0 STARLINK-5179,1 54102U 22136BD  23071.35648348 -.00002605  00000-0 -14564-3 0  9998,2 54102  53.2183 201.8725 0001640  71.9678 288.1493 15.08832632 22401,6917.903,95.438,540.902,538.633,0.0
54102.0,STARLINK-5179,PAYLOAD,2023-03-12 18:05:38,15.08843723,0.0001918,53.216,200.0901,59.9392,300.179,0.00014707,2.053e-05,0.0,0 STARLINK-5179,1 54102U 22136BD  23071.75392201  .00002053  00000-0  14707-3 0  9990,2 54102  53.2160 200.0901 0001918  59.9392 300.1790 15.08843723 22464,6917.869,95.437,541.061,538.407,0.0
54102.0,STARLINK-5179,PAYLOAD,2023-03-13 11:34:53,15.08842014,0.0001713,53.216,196.8172,64.7345,295.3824,0.00033391,5.03e-05,0.0,0 STARLINK-5179,1 54102U 22136BD  23072.48256494  .00005030  00000-0  33391-3 0  9992,2 54102  53.2160 196.8172 0001713  64.7345 295.3824 15.08842014 22578,6917.874,95.437,540.924,538.554,0.0
54102.0,STARLINK-5179,PAYLOAD,2023-03-14 14:36:26,15.08853226,0.0001457,53.2164,191.7616,59.9752,300.1385,0.0002426,3.576e-05,0.0,0 STARLINK-5179,1 54102U 22136BD  23073.60863675  .00003576  00000-0  24260-3 0  9990,2 54102  53.2164 191.7616 0001457  59.9752 300.1385 15.08853226 22745,6917.84,95.437,540.713,538.697,0.0
54102.0,STARLINK-5179,PAYLOAD,2023-03-15 12:51:49,15.08868649,0.0001455,53.2163,187.598,85.2135,274.9023,0.0004706,7.215e-05,0.0,0 STARLINK-5179,1 54102U 22136BD  23074.53598507  .00007215  00000-0  47060-3 0  9999,2 54102  53.2163 187.5980 0001455  85.2135 274.9023 15.08868649 22412,6917.793,95.436,540.664,538.651,0.0
54102.0,STARLINK-5179,PAYLOAD,2023-03-15 23:59:31,15.08852116,0.0001451,53.2171,185.5167,80.7085,279.4071,4.1015e-05,3.65e-06,0.0,0 STARLINK-5179,1 54102U 22136BD  23074.99966570  .00000365  00000-0  41015-4 0  9992,2 54102  53.2171 185.5167 0001451  80.7085 279.4071 15.08852116 22950,6917.843,95.437,540.712,538.705,0.0
54102.0,STARLINK-5179,PAYLOAD,2023-03-16 11:07:14,15.08821478,0.0001329,53.2169,183.4368,102.5819,257.5322,-0.00045123,-7.458e-05,0.0,0 STARLINK-5179,1 54102U 22136BD  23075.46335857 -.00007458  00000-0 -45123-3 0  9998,2 54102  53.2169 183.4368 0001329 102.5819 257.5322 15.08821478 23021,6917.937,95.439,540.721,538.883,0.0
54102.0,STARLINK-5179,PAYLOAD,2023-03-16 17:28:47,15.08820028,0.0001455,53.2173,182.2464,105.5971,254.5182,-0.00033874,-5.672e-05,0.0,0 STARLINK-5179,1 54102U 22136BD  23075.72832269 -.00005672  00000-0 -33874-3 0  9992,2 54102  53.2173 182.2464 0001455 105.5971 254.5182 15.08820028 22594,6917.941,95.439,540.813,538.8,0.0
54102.0,STARLINK-5179,PAYLOAD,2023-03-17 10:58:02,15.08820551,0.0001519,53.217,178.9748,117.5031,242.6116,-0.00022535,-3.871e-05,0.0,0 STARLINK-5179,1 54102U 22136BD  23076.45696923 -.00003871  00000-0 -22535-3 0  9999,2 54102  53.2170 178.9748 0001519 117.5031 242.6116 15.08820551 23170,6917.94,95.439,540.856,538.754,0.0
54102.0,STARLINK-5179,PAYLOAD,2023-03-17 23:41:07,15.08831486,8.2e-05,53.2164,176.5968,103.0214,257.087,0.00026349,3.907e-05,0.0,0 STARLINK-5179,1 54102U 22136BD  23076.98689166  .00003907  00000-0  26349-3 0  9993,2 54102  53.2164 176.5968 0000820 103.0214 257.0870 15.08831486 23253,6917.906,95.438,540.339,539.204,0.0
54102.0,STARLINK-5179,PAYLOAD,2023-03-18 13:59:34,15.08859298,0.0001036,53.2174,173.9205,103.6435,256.4672,0.00073445,0.00011426,0.0,0 STARLINK-5179,1 54102U 22136BD  23077.58304351  .00011426  00000-0  73445-3 0  9994,2 54102  53.2174 173.9205 0001036 103.6435 256.4672 15.08859298 23344,6917.821,95.436,540.403,538.97,0.0
54102.0,STARLINK-5179,PAYLOAD,2023-03-18 15:34:57,15.08863209,0.0001018,53.2173,173.623,103.6573,256.4533,0.00077147,0.00012019,0.0,0 STARLINK-5179,1 54102U 22136BD  23077.64928104  .00012019  00000-0  77147-3 0  9991,2 54102  53.2173 173.6230 0001018 103.6573 256.4533 15.08863209 22882,6917.809,95.436,540.379,538.97,0.0
54102.0,STARLINK-5179,PAYLOAD,2023-03-19 05:53:26,15.08849941,0.0001724,53.2178,170.948,86.6519,273.467,0.00031581,4.743e-05,0.0,0 STARLINK-5179,1 54102U 22136BD  23078.24544588  .00004743  00000-0  31581-3 0  9995,2 54102  53.2178 170.9480 0001724  86.6519 273.4670 15.08849941 23449,6917.85,95.437,540.908,538.522,0.0
54102.0,STARLINK-5179,PAYLOAD,2023-03-19 13:50:21,15.08861005,0.0001093,53.2182,169.4603,88.2113,271.9005,0.00036404,5.514e-05,0.0,0 STARLINK-5179,1 54102U 22136BD  23078.57663724  .00005514  00000-0  36404-3 0  9991,2 54102  53.2182 169.4603 0001093  88.2113 271.9005 15.08861005 23025,6917.816,95.436,540.437,538.925,0.0
54102.0,STARLINK-5179,PAYLOAD,2023-03-19 15:25:44,15.08863242,0.0001159,53.2179,169.1619,92.8899,267.2226,0.00038243,5.808e-05,0.0,0 STARLINK-5179,1 54102U 22136BD  23078.64287565  .00005808  00000-0  38243-3 0  9993,2 54102  53.2179 169.1619 0001159  92.8899 267.2226 15.08863242 23501,6917.809,95.436,540.476,538.873,0.0
54102.0,STARLINK-5179,PAYLOAD,2023-03-20 05:44:12,15.08843591,0.000115,53.2159,166.4871,104.8894,255.2226,-7.7009e-05,-1.513e-05,0.0,0 STARLINK-5179,1 54102U 22136BD  23079.23903842 -.00001513  00000-0 -77009-4 0  9997,2 54102  53.2159 166.4871 0001150 104.8894 255.2226 15.08843591 23590,6917.869,95.437,540.53,538.939,0.0
54102.0,STARLINK-5179,PAYLOAD,2023-03-20 12:05:45,15.08847732,0.000132,53.2163,165.2965,105.4718,254.642,-4.0498e-05,-9.33e-06,0.0,0 STARLINK-5179,1 54102U 22136BD  23079.50399704 -.00000933  00000-0 -40498-4 0  9990,2 54102  53.2163 165.2965 0001320 105.4718 254.6420 15.08847732 23160,6917.857,95.437,540.635,538.809,0.0
54102.0,STARLINK-5179,PAYLOAD,2023-03-21 08:45:46,15.08838002,0.0001385,53.2165,161.4311,100.8076,259.3072,5.6658e-05,6.14e-06,0.0,0 STARLINK-5179,1 54102U 22136BD  23080.36512372  .00000614  00000-0  56658-4 0  9993,2 54102  53.2165 161.4311 0001385 100.8076 259.3072 15.08838002 23763,6917.886,95.438,540.71,538.793,0.0
